NORAD_CAT_ID,OBJECT_NAME,OBJECT_TYPE,EPOCH,MEAN_MOTION,ECCENTRICITY,INCLINATION,RA_OF_ASC_NODE,ARG_OF_PERICENTER,MEAN_ANOMALY,BSTAR,MEAN_MOTION_DOT,MEAN_MOTION_DDOT,TLE_LINE0,TLE_LINE1,TLE_LINE2,SEMIMAJOR_AXIS,PERIOD,APOGEE,PERIGEE,DECAYED
53016.0,STARLINK-4283,PAYLOAD,2024-05-17 19:41:28,15.08840132,0.0001599,53.2174,170.8741,101.9593,258.1578,0.00035866,5.425e-05,0.0,0 STARLINK-4283,1 53016U 22076AG  24138.82046863  .00005425  00000-0  35866-3 0  9994,2 53016  53.2174 170.8741 0001599 101.9593 258.1578 15.08840132103685,6917.88,95.438,540.851,538.639,0.0
53016.0,STARLINK-4283,PAYLOAD,2024-05-18 08:24:33,15.0883816,0.0001609,53.2159,168.4969,93.2001,266.9176,2.894e-05,1.73e-06,0.0,0 STARLINK-4283,1 53016U 22076AG  24139.35039151  .00000173  00000-0  28940-4 0  9996,2 53016  53.2159 168.4969 0001609  93.2001 266.9176 15.08838160103760,6917.886,95.438,540.864,538.638,0.0
53016.0,STARLINK-4283,PAYLOAD,2024-05-18 19:32:14,15.08861119,0.0001526,53.2176,166.4168,83.4735,276.6431,0.00052997,8.161e-05,0.0,0 STARLINK-4283,1 53016U 22076AG  24139.81406246  .00008161  00000-0  52997-3 0  9993,2 53016  53.2176 166.4168 0001526  83.4735 276.6431 15.08861119103831,6917.816,95.436,540.736,538.625,0.0
53016.0,STARLINK-4283,PAYLOAD,2024-05-19 08:15:20,15.08824861,0.0001416,53.2157,164.0351,94.2935,265.8219,-0.00028172,-4.767e-05,0.0,0 STARLINK-4283,1 53016U 22076AG  24140.34399207 -.00004767  00000-0 -28172-3 0  9999,2 53016  53.2157 164.0351 0001416  94.2935 265.8219 15.08824861103442,6917.927,95.439,540.771,538.812,0.0
53016.0,STARLINK-4283,PAYLOAD,2024-05-20 06:30:45,15.08830461,0.0001388,53.2153,159.8736,85.2798,274.8353,0.00013612,1.879e-05,0.0,0 STARLINK-4283,1 53016U 22076AG  24141.27135881  .00001879  00000-0  13612-3 0  9990,2 53016  53.2153 159.8736 0001388  85.2798 274.8353 15.08830461104052,6917.91,95.438,540.735,538.814,0.0
53016.0,STARLINK-4283,PAYLOAD,2024-05-21 07:56:55,15.08849556,0.0001329,53.2152,155.1157,89.28,270.8344,0.00063683,9.864e-05,0.0,0 STARLINK-4283,1 53016U 22076AG  24142.33120067  .00009864  00000-0  63683-3 0  9993,2 53016  53.2152 155.1157 0001329  89.2800 270.8344 15.08849556104219,6917.851,95.437,540.636,538.797,0.0
53016.0,STARLINK-4283,PAYLOAD,2024-05-22 04:36:56,15.08848596,0.0001469,53.2154,151.2512,104.8082,255.3073,0.00022998,3.375e-05,0.0,0 STARLINK-4283,1 53016U 22076AG  24143.19231698  .00003375  00000-0  22998-3 0  9996,2 53016  53.2154 151.2512 0001469 104.8082 255.3073 15.08848596104348,6917.854,95.437,540.735,538.703,0.0
53016.0,STARLINK-4283,PAYLOAD,2024-05-22 10:58:28,15.08848365,0.0001452,53.2154,150.0626,103.9023,256.2131,0.00018398,2.642e-05,0.0,0 STARLINK-4283,1 53016U 22076AG  24143.45727602  .00002642  00000-0  18398-3 0  9995,2 53016  53.2154 150.0626 0001452 103.9023 256.2131 15.08848365103919,6917.855,95.437,540.724,538.715,0.0
53016.0,STARLINK-4283,PAYLOAD,2024-05-23 04:27:43,15.08842148,0.0001414,53.2152,146.7891,98.0886,262.0267,2.8248e-05,1.62e-06,0.0,0 STARLINK-4283,1 53016U 22076AG  24144.18591673  .00000162  00000-0  28248-4 0  9994,2 53016  53.2152 146.7891 0001414  98.0886 262.0267 15.08842148104494,6917.874,95.437,540.717,538.761,0.0
53016.0,STARLINK-4283,PAYLOAD,2024-05-23 07:38:29,15.08843488,0.0001403,53.2156,146.1941,94.6346,265.4807,4.6698e-05,4.55e-06,0.0,0 STARLINK-4283,1 53016U 22076AG  24144.31839721  .00000455  00000-0  46698-4 0  9992,2 53016  53.2156 146.1941 0001403  94.6346 265.4807 15.08843488104045,6917.87,95.437,540.705,538.764,0.0
53016.0,STARLINK-4283,PAYLOAD,2024-05-24 09:04:39,15.08846235,0.0001396,53.2154,141.4357,91.8849,268.2303,0.00014706,2.054e-05,0.0,0 STARLINK-4283,1 53016U 22076AG  24145.37823472  .00002054  00000-0  14706-3 0  9996,2 53016  53.2154 141.4357 0001396  91.8849 268.2303 15.08846235104674,6917.861,95.437,540.692,538.761,0.0
53016.0,STARLINK-4283,PAYLOAD,2024-05-25 04:09:17,15.08838244,0.0001547,53.215,137.8685,96.9231,263.1938,4.8259e-05,4.8e-06,0.0,0 STARLINK-4283,1 53016U 22076AG  24146.17312020  .00000480  00000-0  48259-4 0  9999,2 53016  53.2150 137.8685 0001547  96.9231 263.1938 15.08838244104794,6917.886,95.438,540.821,538.681,0.0
53016.0,STARLINK-4283,PAYLOAD,2024-05-25 05:44:40,15.08835469,0.0001468,53.2151,137.5721,94.2486,265.8674,6.1944e-06,-1.89e-06,0.0,0 STARLINK-4283,1 53016U 22076AG  24146.23936159 -.00000189  00000-0  61944-5 0  9995,2 53016  53.2151 137.5721 0001468  94.2486 265.8674 15.08835469104330,6917.894,95.438,540.775,538.744,0.0
53016.0,STARLINK-4283,PAYLOAD,2024-05-26 05:35:27,15.08843538,0.0001257,53.2166,133.1114,108.5512,251.5616,6.9742e-06,-1.77e-06,0.0,0 STARLINK-4283,1 53016U 22076AG  24147.23296044 -.00000177  00000-0  69742-5 0  9999,2 53016  53.2166 133.1114 0001257 108.5512 251.5616 15.08843538104951,6917.87,95.437,540.604,538.865,0.0
53016.0,STARLINK-4283,PAYLOAD,2024-05-26 23:04:42,15.08840274,0.0001398,53.2167,129.8409,96.6658,263.4493,0.00013328,1.834e-05,0.0,0 STARLINK-4283,1 53016U 22076AG  24147.96160055  .00001834  00000-0  13328-3 0  9998,2 53016  53.2167 129.8409 0001398  96.6658 263.4493 15.08840274104594,6917.88,95.438,540.712,538.777,0.0
53016.0,STARLINK-4283,PAYLOAD,2024-05-27 05:26:14,15.08843572,0.0001395,53.2167,128.6518,96.0582,264.0569,0.00015977,2.256e-05,0.0,0 STARLINK-4283,1 53016U 22076AG  24148.22655825  .00002256  00000-0  15977-3 0  9993,2 53016  53.2167 128.6518 0001395  96.0582 264.0569 15.08843572104639,6917.869,95.437,540.7,538.769,0.0
53016.0,STARLINK-4283,PAYLOAD,2024-05-27 22:55:29,15.08836929,0.0001484,53.2169,125.3844,94.0711,266.045,5.6052e-05,6.04e-06,0.0,0 STARLINK-4283,1 53016U 22076AG  24148.95520566  .00000604  00000-0  56052-4 0  9991,2 53016  53.2169 125.3844 0001484  94.0711 266.0450 15.08836929104749,6917.89,95.438,540.781,538.728,0.0
53016.0,STARLINK-4283,PAYLOAD,2024-05-28 05:17:02,15.08836143,0.0001522,53.2176,124.1943,104.8534,255.2627,3.7976e-05,3.16e-06,0.0,0 STARLINK-4283,1 53016U 22076AG  24149.22016630  .00000316  00000-0  37976-4 0  9998,2 53016  53.2176 124.1943 0001522 104.8534 255.2627 15.08836143105251,6917.892,95.438,540.81,538.704,0.0
53016.0,STARLINK-4283,PAYLOAD,2024-05-28 22:46:16,15.08838231,0.0001564,53.2178,120.9232,106.3176,253.7989,1.9644e-05,2.5e-07,0.0,0 STARLINK-4283,1 53016U 22076AG  24149.94880574  .00000025  00000-0  19644-4 0  9992,2 53016  53.2178 120.9232 0001564 106.3176 253.7989 15.08838231104896,6917.886,95.438,540.833,538.669,0.0
53016.0,STARLINK-4283,PAYLOAD,2024-05-29 08:18:35,15.08842268,0.0001475,53.2177,119.1369,98.7375,261.3785,3.3571e-05,2.46e-06,0.0,0 STARLINK-4283,1 53016U 22076AG  24150.34624241  .00000246  00000-0  33571-4 0  9995,2 53016  53.2177 119.1369 0001475  98.7375 261.3785 15.08842268105426,6917.873,95.437,540.759,538.718,0.0
53016.0,STARLINK-4283,PAYLOAD,2024-05-30 04:58:36,15.08834623,0.0001441,53.2178,115.2681,81.9347,278.1809,4.8105e-05,4.78e-06,0.0,0 STARLINK-4283,1 53016U 22076AG  24151.20737112  .00000478  00000-0  48105-4 0  9999,2 53016  53.2178 115.2681 0001441  81.9347 278.1809 15.08834623105550,6917.897,95.438,540.759,538.765,0.0
53016.0,STARLINK-4283,PAYLOAD,2024-05-30 06:33:59,15.08835426,0.0001451,53.2179,114.9708,86.18,273.9358,5.434e-05,5.77e-06,0.0,0 STARLINK-4283,1 53016U 22076AG  24151.27361049  .00000577  00000-0  54340-4 0  9996,2 53016  53.2179 114.9708 0001451  86.1800 273.9358 15.08835426105092,6917.894,95.438,540.763,538.756,0.0
53016.0,STARLINK-4283,PAYLOAD,2024-05-31 04:49:23,15.0884753,0.0001481,53.2182,110.8075,82.1842,277.9319,0.00011657,1.568e-05,0.0,0 STARLINK-4283,1 53016U 22076AG  24152.20096233  .00001568  00000-0  11657-3 0  9994,2 53016  53.2182 110.8075 0001481  82.1842 277.9319 15.08847530105701,6917.857,95.437,540.747,538.698,0.0
53016.0,STARLINK-4283,PAYLOAD,2024-05-31 06:24:46,15.08847394,0.0001414,53.2182,110.5101,90.6431,269.4723,0.00015993,2.259e-05,0.0,0 STARLINK-4283,1 53016U 22076AG  24152.26720088  .00002259  00000-0  15993-3 0  9997,2 53016  53.2182 110.5101 0001414  90.6431 269.4723 15.08847394105244,6917.858,95.437,540.701,538.745,0.0
53016.0,STARLINK-4283,PAYLOAD,2024-06-01 04:40:10,15.08839173,0.0001445,53.2175,106.3505,81.6779,278.4377,5.5365e-05,5.93e-06,0.0,0 STARLINK-4283,1 53016U 22076AG  24153.19456968  .00000593  00000-0  55365-4 0  9990,2 53016  53.2175 106.3505 0001445  81.6779 278.4377 15.08839173105854,6917.883,95.438,540.748,538.748,0.0
53016.0,STARLINK-4283,PAYLOAD,2024-06-01 14:12:29,15.08841687,0.0001447,53.2178,104.5668,83.9322,276.1835,5.7177e-05,6.22e-06,0.0,0 STARLINK-4283,1 53016U 22076AG  24153.59200798  .00000622  00000-0  57177-4 0  9998,2 53016  53.2178 104.5668 0001447  83.9322 276.1835 15.08841687105440,6917.875,95.437,540.741,538.739,0.0
53016.0,STARLINK-4283,PAYLOAD,2024-06-02 06:06:20,15.08848367,0.0001458,53.2176,101.5916,94.2529,265.863,1.1568e-05,-1.04e-06,0.0,0 STARLINK-4283,1 53016U 22076AG  24154.25440350 -.00000104  00000-0  11568-4 0  9992,2 53016  53.2176 101.5916 0001458  94.2529 265.8630 15.08848367106011,6917.855,95.437,540.728,538.711,0.0
53016.0,STARLINK-4283,PAYLOAD,2024-06-02 14:03:16,15.08846004,0.0001447,53.2175,100.105,93.3039,266.8119,-1.8501e-05,-5.82e-06,0.0,0 STARLINK-4283,1 53016U 22076AG  24154.58560499 -.00000582  00000-0 -18501-4 0  9990,2 53016  53.2175 100.1050 0001447  93.3039 266.8119 15.08846004105599,6917.862,95.437,540.728,538.726,0.0
53016.0,STARLINK-4283,PAYLOAD,2024-06-03 02:46:21,15.08840807,0.0001587,53.2187,97.7251,94.8512,265.2662,6.5693e-05,7.58e-06,0.0,0 STARLINK-4283,1 53016U 22076AG  24155.11552671  .00000758  00000-0  65693-4 0  9990,2 53016  53.2187  97.7251 0001587  94.8512 265.2662 15.08840807106146,6917.878,95.438,540.841,538.645,0.0
53016.0,STARLINK-4283,PAYLOAD,2024-06-03 05:57:07,15.08841968,0.0001574,53.2185,97.1298,98.8977,261.2193,5.5253e-05,5.91e-06,0.0,0 STARLINK-4283,1 53016U 22076AG  24155.24800671  .00000591  00000-0  55253-4 0  9996,2 53016  53.2185  97.1298 0001574  98.8977 261.2193 15.08841968105697,6917.874,95.437,540.828,538.651,0.0
